ONEWEB-0328             
1 49197U 21083M   24232.59129026  .00000021  00000+0  21801-4 0  9999
2 49197  87.8869  92.8913 0001651  77.6873 282.4441 13.13472547144686
ONEWEB-0331             
1 49198U 21083N   24233.18038864  .00000073  00000+0  15197-3 0  9992
2 49198  87.9104 108.0432 0002113  81.4127 278.7245 13.18687635143517
ONEWEB-0333             
1 49199U 21083P   24232.58652920  .00000050  00000+0  10085-3 0  9997
2 49199  87.8876  92.9257 0001611  79.8369 280.2942 13.13471380144695
ONEWEB-0334             
1 49200U 21083Q   24233.20800004  .00000146  00000+0  32785-3 0  9995
2 49200  87.9186  46.9501 0000697  75.6513 284.4698 13.20771779150179
ONEWEB-0335             
1 49201U 21083R   24232.88648161 -.00000131  00000+0 -39261-3 0  9995
2 49201  87.8879  92.8538 0001815  85.9858 274.1479 13.13470308144742
ONEWEB-0336             
1 49202U 21083S   24232.32309605 -.00000032  00000+0 -12154-3 0  9994
2 49202  87.8880  92.9621 0001704  75.3505 284.7812 13.13472146143376
ONEWEB-0337             
1 49203U 21083T   24233.09424725 -.00000203  00000+0 -58979-3 0  9996
2 49203  87.8877  92.8070 0001822  83.7198 276.4139 13.13469813144774
ONEWEB-0338             
1 49204U 21083U   24232.45751405  .00000087  00000+0  18246-3 0  9995
2 49204  87.9191  47.0878 0001383  97.0416 263.0875 13.20773685148806
ONEWEB-0339             
1 49205U 21083V   24233.10548350 -.00000197  00000+0 -57397-3 0  9996
2 49205  87.8876  92.7983 0001718  86.2754 273.8571 13.13472098144755
ONEWEB-0340             
1 49206U 21083W   24233.16616348  .00000113  00000+0  25407-3 0  9999
2 49206  87.9108 108.0409 0001921  78.9675 281.1673 13.18684896143485
ONEWEB-0341             
1 49207U 21083X   24233.17406767  .00000064  00000+0  12979-3 0  9998
2 49207  87.9104 108.0528 0002079 100.8723 259.2643 13.18684221143506
ONEWEB-0342             
1 49208U 21083Y   24232.99414091  .00000639  00000+0  15408-2 0  9994
2 49208  87.9185  46.9851 0001577  93.1499 266.9815 13.20769926150144
ONEWEB-0343             
1 49209U 21083Z   24232.41058446  .00000736  00000+0  18331-2 0  9996
2 49209  87.9101 108.2083 0002127  81.7289 278.4085 13.18686102142165
ONEWEB-0344             
1 49210U 21083AA  24233.14834337  .00000355  00000+0  93829-3 0  9993
2 49210  87.8879  92.8089 0002083  90.9786 269.1582 13.13470719144764
ONEWEB-0345             
1 49211U 21083AB  24232.63255483 -.00000173  00000+0 -50757-3 0  9999
2 49211  87.8874  92.8851 0002151  90.7221 269.4155 13.13469599144702
ONEWEB-0346             
1 49212U 21083AC  24233.17880930  .00000097  00000+0  21404-3 0  9991
2 49212  87.9107 108.0608 0002134  75.0251 285.1117 13.18684795143493
ONEWEB-0348             
1 49213U 21083AD  24233.21193395  .00000107  00000+0  23006-3 0  9991
2 49213  87.9194  46.9200 0002474  90.4617 269.6799 13.20771763150207
ONEWEB-0350             
1 49214U 21083AE  24233.09914433 -.00000204  00000+0 -59483-3 0  9990
2 49214  87.8876  92.7828 0002011  87.5230 272.6129 13.13470586144793
ONEWEB-0351             
1 49215U 21083AF  24233.20548627  .00000152  00000+0  34184-3 0  9993
2 49215  87.9187  46.9174 0001295 123.0493 237.0765 13.20769979150170
ONEWEB-0352             
1 49216U 21083AG  24233.15627648  .00000158  00000+0  39656-3 0  9994
2 49216  87.8880  92.8046 0001431  97.0208 263.1084 13.13471027144896
ONEWEB-0354             
1 49217U 21083AH  24232.85209281  .00000046  00000+0  80635-4 0  9990
2 49217  87.9192  46.9755 0002003  97.3621 262.7740 13.20769673150165
ONEWEB-0355             
1 49218U 21083AJ  24232.88171469 -.00000222  00000+0 -64159-3 0  9990
2 49218  87.8880  92.8585 0001658  86.0871 274.0448 13.13471060144736
ONEWEB-0357             
1 49219U 21083AK  24233.00044804  .00000032  00000+0  47587-4 0  9992
2 49219  87.9188  46.9622 0001693  95.5378 264.5948 13.20769465150178
ONEWEB-0332             
1 49279U 21090A   24233.03577796  .00000003  00000+0 -25257-4 0  9999
2 49279  87.8919  62.2184 0001431  83.0821 277.0471 13.14502189140062
ONEWEB-0347             
1 49280U 21090B   24233.21827377  .00000102  00000+0  21942-3 0  9999
2 49280  87.9193  46.9193 0001407  79.6195 280.5097 13.20792132143136
ONEWEB-0349             
1 49281U 21090C   24232.49223503  .00000117  00000+0  25569-3 0  9995
2 49281  87.9191  47.0648 0001695  86.4002 273.7325 13.20774669141821
ONEWEB-0353             
1 49282U 21090D   24233.02784975 -.00000091  00000+0 -27938-3 0  9996
2 49282  87.8919  62.2048 0001447  86.2293 273.9002 13.14503638141358
ONEWEB-0356             
1 49283U 21090E   24232.41492038  .00000086  00000+0  17918-3 0  9994
2 49283  87.9190  47.0742 0002336  69.0823 291.0561 13.20771425141819
ONEWEB-0358             
1 49284U 21090F   24233.20247102  .00000159  00000+0  35829-3 0  9995
2 49284  87.9192  46.9038 0002024  86.1453 273.9911 13.20769345143932
ONEWEB-0359             
1 49285U 21090G   24232.44174978  .00000322  00000+0  75995-3 0  9991
2 49285  87.9192  47.0735 0002073  97.7762 262.3607 13.20770554142526
ONEWEB-0360             
1 49286U 21090H   24232.88682207  .00000100  00000+0  21359-3 0  9998
2 49286  87.9189  46.9891 0001812  91.9763 268.1578 13.20772924143188
ONEWEB-0361             
1 49287U 21090J   24232.48909477  .00000068  00000+0  13575-3 0  9990
2 49287  87.9189  47.0631 0001758  82.4928 277.6405 13.20772410142295
ONEWEB-0362             
1 49288U 21090K   24233.12669189  .00000155  00000+0  35499-3 0  9992
2 49288  87.9099  77.4971 0001580  96.0174 264.1139 13.19729227139889
ONEWEB-0363             
1 49289U 21090L   24232.88365497  .00000026  00000+0  31173-4 0  9993
2 49289  87.9192  46.9797 0001990  82.3160 277.8200 13.20773314143185
ONEWEB-0364             
1 49290U 21090M   24232.99729661  .00000083  00000+0  17271-3 0  9999
2 49290  87.9193  46.9829 0001758  86.1271 274.0064 13.20769287144329
ONEWEB-0365             
1 49291U 21090N   24233.13618048  .00000199  00000+0  46408-3 0  9995
2 49291  87.9093  77.4713 0001637  87.3741 272.7579 13.19726140139869
ONEWEB-0366             
1 49292U 21090P   24233.02467861 -.00000147  00000+0 -43124-3 0  9996
2 49292  87.8921  62.2153 0001707  87.2078 272.9247 13.14503421141349
ONEWEB-0367             
1 49293U 21090Q   24232.42755885  .00000143  00000+0  31990-3 0  9998
2 49293  87.9190  47.0652 0001583  83.9437 276.1877 13.20771002141814
ONEWEB-0368             
1 49294U 21090R   24232.85524785  .00000182  00000+0  41462-3 0  9997
2 49294  87.9193  47.0107 0001509  59.0693 301.0588 13.20770509144326
ONEWEB-0369             
1 49295U 21090S   24233.13143918  .00000157  00000+0  35955-3 0  9997
2 49295  87.9097  77.4799 0001584  84.0978 276.0335 13.19726164139850
ONEWEB-0370             
1 49296U 21090T   24233.19457238  .00000147  00000+0  33064-3 0  9995
2 49296  87.9192  46.9166 0001980  98.5588 261.5770 13.20773822143259
ONEWEB-0371             
1 49297U 21090U   24233.06352896  .00000104  00000+0  22836-3 0  9994
2 49297  87.9100  77.4829 0001624  89.0181 271.1138 13.19727562139880
ONEWEB-0372             
1 49298U 21090V   24232.42581506  .00000085  00000+0  17671-3 0  9995
2 49298  87.9189  47.0786 0001618  90.4239 269.7080 13.20773213141828
ONEWEB-0373             
1 49299U 21090W   24233.21036578  .00000132  00000+0  29156-3 0  9992
2 49299  87.9191  46.9371 0001730  79.5904 280.5424 13.20772463144419
ONEWEB-0374             
1 49300U 21090X   24233.08811080 -.00000090  00000+0 -27777-3 0  9991
2 49300  87.8921  62.1871 0001689  83.5294 276.6028 13.14503705141346
ONEWEB-0375             
1 49301U 21090Y   24233.19776402 -.00003113  00000+0 -76935-2 0  9990
2 49301  87.9180  46.9163 0002265  80.6067 279.5323 13.20750249143904
ONEWEB-0376             
1 49302U 21090Z   24232.53122740  .00000066  00000+0  13343-3 0  9995
2 49302  87.9094  77.5936 0001442  86.3619 273.7679 13.19725133139805
ONEWEB-0377             
1 49303U 21090AA  24233.18366911  .00000116  00000+0  25350-3 0  9995
2 49303  87.9193  46.9109 0001912  93.6331 266.5021 13.20773023143889
ONEWEB-0378             
1 49304U 21090AB  24233.20575866  .00000163  00000+0  36933-3 0  9991
2 49304  87.9193  46.9099 0001816  86.5693 273.5648 13.20773985143197
ONEWEB-0379             
1 49305U 21090AC  24232.24605552 -.00000135  00000+0 -39827-3 0  9997
2 49305  87.8918  62.3583 0001660  84.5240 275.6079 13.14502869139948
ONEWEB-0380             
1 49306U 21090AD  24233.13458763 -.00000151  00000+0 -40852-3 0  9995
2 49306  87.9096  77.4822 0001708  87.2009 272.9319 13.19725426139854
ONEWEB-0381             
1 49307U 21090AE  24232.42281885  .00000098  00000+0  20798-3 0  9991
2 49307  87.9190  47.0695 0001937  90.8068 269.3287 13.20772649141814
ONEWEB-0382             
1 49308U 21090AF  24232.86471506  .00000118  00000+0  25749-3 0  9995
2 49308  87.9190  46.9780 0001957  75.0024 285.1326 13.20769159143170
ONEWEB-0383             
1 49309U 21090AG  24232.23971071 -.00000002  00000+0 -39726-4 0  9994
2 49309  87.8917  62.3466 0001693  78.8664 281.2656 13.14504189139977
ONEWEB-0384             
1 49310U 21090AH  24232.86156044 -.00000002  00000+0 -37257-4 0  9997
2 49310  87.9191  46.9914 0002013  75.6472 284.4885 13.20768346143180
ONEWEB-0385             
1 49311U 21090AJ  24232.47805043  .00000038  00000+0  62438-4 0  9991
2 49311  87.9190  47.0689 0002053  81.9093 278.2273 13.20771506141793
ONEWEB-0386             
1 49312U 21090AK  24232.41964392  .00000059  00000+0  11419-3 0  9994
2 49312  87.9184  47.0709 0001894  79.2336 280.9010 13.20768621141807
ONEWEB-0387             
1 49313U 21090AL  24232.93417035  .00000060  00000+0  11601-3 0  9994
2 49313  87.9192  47.0352 0002150  88.0224 272.1155 13.20771300143185
ONEWEB-0388             
1 49314U 21090AM  24233.12986167  .00000161  00000+0  36911-3 0  9997
2 49314  87.9098  77.4863 0001714  79.7240 280.4086 13.19726847139853
